#aV2022  5  3  0  0  0.00000000     288 DD+AD WGS84 FIT  NGA
## 2208 172800.00000000   300.00000000 59702 0.0000000000000
+   32     1  2  3  4  5  6  7  8  9 10 11 12 13 14 15 16 17
+         18 19 20 21 22 23 24 25 26 27 28 29 30 31 32  0  0
+          0  0  0  0  0  0  0  0  0  0  0  0  0  0  0  0  0
+          0  0  0  0  0  0  0  0  0  0  0  0  0  0  0  0  0
+          0  0  0  0  0  0  0  0  0  0  0  0  0  0  0  0  0
++         2  2  2  2  2  2  2  2  2  2  2  2  2  2  2  2  2
++         2  2  2  2  2  2  2  2  2  2  2  2  2  2  2  0  0
++         0  0  0  0  0  0  0  0  0  0  0  0  0  0  0  0  0
++         0  0  0  0  0  0  0  0  0  0  0  0  0  0  0  0  0
++         0  0  0  0  0  0  0  0  0  0  0  0  0  0  0  0  0
%c cc cc ccc ccc cccc cccc cccc cccc ccccc ccccc ccccc ccccc
%c cc cc ccc ccc cccc cccc cccc cccc ccccc ccccc ccccc ccccc
%f  0.0000000  0.000000000  0.00000000000  0.000000000000000
%f  0.0000000  0.000000000  0.00000000000  0.000000000000000
%i    0    0    0    0      0      0      0      0         0
%i    0    0    0    0      0      0      0      0         0
/*      NGA, ST. LOUIS,MO.                                  
/*   EPHEMERIS COMPUTED FROM 2 DAYS OF DATA                 
/*   EPOCHA v7 SMOOTHER                                     
/*   G2139 IERS2010 SATIGS SATAPC                           
*  2022  5  3 19 20  0.00000000
P  1  18259.234379   7975.069418  17445.417052    370.974136                    
V  1  10735.792787  19848.777851 -19632.484343     -0.084605                    
P  2 -14695.783000 -21997.124982   1740.310380   -653.273954                    
V  2   3067.575151   -480.356494  31872.310058     -0.000254                    
P  3  17093.278971  -3245.720754  19925.606273   -230.922506                    
V  3 -11066.128400  23040.640739  13287.429192     -0.143684                    
P  4  26539.220874   1109.122772   1548.229826   -170.560554                    
V  4  -1951.873999   2737.483772  31620.931221      0.033945                    
P  5 -10268.274394 -12679.569818 -21094.386313    -80.541559                    
V  5  12179.098640 -23479.852914   8397.684079     -0.013608                    
P  6  -2833.017591 -22338.226888  14084.862355    289.669329                    
V  6  10641.502688  14304.857718  25016.403713      0.142434                    
P  7  12364.270439  -8934.528826 -21327.517845    321.609718                    
V  7  15040.942378  23723.958525  -1685.666797      0.006270                    
P  8  23670.086132   6219.745471 -10789.898400    -66.497003                    
V  8 -13383.612937   2833.525199 -27478.392902     -0.015805                    
P  9  23997.134952  -7451.640448  -8714.401246   -339.420526                    
V  9  11108.478845   2166.838639  28919.885241      0.027528                    
P 10 -11156.384956  23860.713970   1933.349525   -401.091176                    
V 10  -3421.210920    783.162970 -32097.713913     -0.137997                    
P 11 -12757.983297 -23304.166764     30.638529    -29.896836                    
V 11   2422.108243  -1279.931291  31795.356394      0.055682                    
P 12 -15796.131935  -1907.965623  20976.809474   -209.899817                    
V 12  13868.224251 -23480.820706   8318.247032     -0.058301                    
P 13 -16581.445830 -13028.837160 -16402.314816    305.135628                    
V 13  20513.415900    513.926382 -21174.816766      0.067000                    
P 14  12896.440520 -23152.035055    760.075277   -106.441747                    
V 14   3206.229725    744.958387 -31617.556685     -0.021059                    
P 15 -24459.720355  -3906.701017 -10415.019384    -64.085641                    
V 15  11950.613802  -4952.412425 -26979.168127      0.029616                    
P 16   5245.652545  16925.779547 -19909.468576   -497.626222                    
V 16 -14642.265026  20064.289088  13832.447621     -0.034806                    
P 17  10472.130475 -13623.025287  20697.405301    608.195292                    
V 17  25219.871529   1453.115214 -12009.494810      0.048318                    
P 18 -12330.119561   8547.239783 -21920.135548    179.645370                    
V 18 -14339.174422 -23801.655764  -1321.453941     -0.098821                    
P 19   2315.180670 -14575.966727  21814.569977    152.572882                    
V 19  28197.357176   2285.847282  -1645.226410      0.049961                    
P 20  -4221.150344 -21491.761367 -15179.537198    515.536712                    
V 20   8420.015965 -17442.659033  22118.631963     -0.001815                    
P 21  20002.964528  15430.150541   9880.328457    160.891564                    
V 21   5284.296700  10288.997589 -27996.936919      0.002078                    
P 22   1070.751147  15443.837113  22005.700163    253.293665                    
V 22 -26918.648294  -1239.076849   2044.123865      0.060889                    
P 23 -16292.720304  18904.606188  -8952.037059    -19.429890                    
V 23   2894.301746 -11265.303007 -29184.649647     -0.026296                    
P 24 -20257.103039 -10523.903916  13612.616375    247.241769                    
V 24  -8403.408448 -15780.516090 -23764.830865     -0.061990                    
P 25 -18027.208599  12868.427474  14166.230808    320.073808                    
V 25   6445.786019 -17624.467784  23999.348109      0.048779                    
P 26  -1864.995136  23810.567484 -11374.787045    203.108367                    
V 26  -9009.330621  11772.291368  26627.006453      0.026639                    
P 27  13802.400041  12636.156526 -19212.812794    196.431779                    
V 27 -23736.181884   1765.128891 -15682.203070      0.072220                    
P 28   7416.883215 -23782.153015  10045.490971    363.757582                    
V 28   8237.507483  -8860.719714 -28301.404831     -0.057072                    
P 29 -24821.004733   4599.303303  -8418.133821   -509.816450                    
V 29 -10484.334451  -2397.060828  29725.169704     -0.040283                    
P 30   5608.024590 -17655.411048 -18864.050903   -526.450827                    
V 30  14047.589926  19899.375467 -14637.719911     -0.015542                    
P 31   4238.466576  23235.378331  11542.676987   -176.093740                    
V 31 -10146.085121 -11470.311679  26977.656026     -0.016133                    
P 32  -7294.341757  14950.441686  20809.198976   -118.961966                    
V 32 -26165.622547    137.886618  -9521.533255     -0.084482                    
EOF
